#dP2021  6 14  0  0  0.00000000      96 __u+U ITR00 EXT  IAC
## 2162  86400.00000000   900.00000000 59379 0.0000000000000
+  116   C06C07C08C09C10C11C12C13C14C16C19C20C21C22C23C24C25
+        C26C27C28C29C30C32C33C34C35C36C37C38C39C40C41C42C43
+        C44C45C46E01E02E03E04E05E07E08E09E11E12E13E14E15E18
+        E19E21E24E25E26E27E30E31E33E36G01G02G03G04G05G06G07
+        G08G09G10G12G13G14G15G16G17G18G19G20G21G22G23G24G25
+        G26G27G28G29G30G31G32J01J02J03R01R02R03R04R05R07R08
+        R09R11R12R13R14R15R16R17R18R19R20R21R22R24  0  0  0
++         9  9  9 10 10  7  8  9  7 11  9  9  9 10  8  7  8
++         7  8  6  8  7  8  7  9  9  7  7 11  8 10  8  7  8
++        10 10  8  8  7  8  8  8  7  7  8  8  6  8  8  8  7
++         8  8  7  7  8  8  7  7  8  7  7  8  7  7  7  8  7
++         7  8  7  7  9  7  6  7  7  8  9  8  7  8  7  7  8
++        10  8  8  9  8 10  6  9 10  8  8  9  8  9  9  8  9
++        10  8  8  9  8  7  9  7  8  8  8  8  9  8  0  0  0
%c M  cc GPS ccc cccc cccc cccc cccc ccccc ccccc ccccc ccccc
%c cc cc ccc ccc cccc cccc cccc cccc ccccc ccccc ccccc ccccc
%f  0.0000000  0.000000000  0.00000000000  0.000000000000000
%f  0.0000000  0.000000000  0.00000000000  0.000000000000000
%i    0    0    0    0      0      0      0      0         0
%i    0    0    0    0      0      0      0      0         0
/* IAC                                ULTRA-RAPID PREDICTION
/* S/V CLOCKS ARE ALIGNED TO GNSS TIME                      
/* G:C1WC2W R:C1PC2P E:C1XC5X C:C2IC6I J:C1CC2S             
/* PCV:IGS14_2148 OL/AL:FES2004  NONE     YN ORB:CoN CLK:CoN
*  2021 06 14 22  0  0.00000000
PC06 -21402.034787  35690.776845   5340.199524 999999.999999
PC07  -8033.678388  31368.447480  27528.723248 999999.999999
PC08 -17816.231706  18186.377130 -33612.524564 999999.999999
PC09 -10956.123989  35772.082816  19320.246297 999999.999999
PC10   4887.914452  38114.020648  18094.274154 999999.999999
PC11 -21959.252603  11608.981124  12814.250750 999999.999999
PC12 -15203.631736  -5466.538157  22782.708401 999999.999999
PC13  -3957.999596  22325.847685 -35462.504498 999999.999999
PC14 -15745.534257   2993.280854 -22813.038699 999999.999999
PC16 -19736.991572  36412.735478   7388.602424 999999.999999
PC19  11189.089534 -13482.129180  21744.254869 999999.999999
PC20  17464.893072   6206.399006  20891.697028 999999.999999
PC21 -13543.008259 -23209.576072  -7452.238261 999999.999999
PC22  -1740.229401 -25986.274391   9980.562209 999999.999999
PC23  -1648.959276  16209.938698  22664.410580 999999.999999
PC24 -27461.669242  -4963.681153    744.103444 999999.999999
PC25 -20088.036017   8948.919207  17187.582908 999999.999999
PC26 -19165.876935 -14003.960994 -14703.618007 999999.999999
PC27   8285.477019  14146.561199 -22603.114951 999999.999999
PC28  -8676.872710  23128.456506 -12989.652556 999999.999999
PC29  19761.788268 -19250.394862  -4222.099788 999999.999999
PC30  20010.614755  -3300.217486 -19187.121550 999999.999999
PC32  13751.987770  23117.266321   7481.300830 999999.999999
PC33 -11142.599056  13525.539745 -21713.186645 999999.999999
PC34 -20276.802123   3955.580880  18736.201297 999999.999999
PC35   8166.715966 -23507.121789  12651.852558 999999.999999
PC36  20574.596029  -8237.763952 -16931.846031 999999.999999
PC37  18013.397843  14757.733467  15388.755879 999999.999999
PC38 -14559.981605  21497.975372 -33232.121657 999999.999999
PC39 -16255.188949  37846.728977   8634.288336 999999.999999
PC40   -594.035444  35382.596052  23060.633542 999999.999999
PC41   1642.260773  25915.354383 -10169.494522 999999.999999
PC42 -17543.045998  -6992.751330 -20491.492963 999999.999999
PC43 -20033.825612  18833.493330   4683.425285 999999.999999
PC44  -8635.754635 -14136.605399  22448.463288 999999.999999
PC45   1425.494860 -16114.577248 -22730.483204 999999.999999
PC46  27511.331169   4233.225546  -1736.253335 999999.999999
PE01 -22665.782213  -1783.105957  18955.518531 999999.999999
PE02  22601.132350   1660.919647 -19036.849330 999999.999999
PE03  17339.014813  -8342.800376  22493.432619 999999.999999
PE04 -10871.535742  25701.342295  -9866.291630 999999.999999
PE05  13714.473557  14165.418544  22087.601220 999999.999999
PE07  -2128.897053 -28169.886680  -8803.423872 999999.999999
PE08  10523.324744 -25927.008141   9638.647935 999999.999999
PE09   2343.852139  28107.996904   9019.994485 999999.999999
PE11   1703.873047  16566.600709 -24481.797832 999999.999999
PE12 -19101.031948  17655.230126 -14116.057087 999999.999999
PE13  -1211.547145 -16641.295112  24448.209508 999999.999999
PE14 -16528.914166  18516.007593   9865.012938 999999.999999
PE15  19051.436116 -17688.190654  14160.944788 999999.999999
PE18  21368.782036  -7861.932247 -19918.884357 999999.999999
PE19 -17326.278844   5804.037465 -23276.317888 999999.999999
PE21 -24291.431159 -16620.491651   3128.485293 999999.999999
PE24  11004.543742  22504.225077  15743.914163 999999.999999
PE25  24229.798973  16750.019661  -2920.953206 999999.999999
PE26 -21380.208762  -5421.615228  19737.793552 999999.999999
PE27 -11903.390745 -22488.201196 -15123.831630 999999.999999
PE30   8446.083568 -14431.539099 -24432.149463 999999.999999
PE31  -7401.488963  15098.970118  24368.121251 999999.999999
PE33 -28053.201553   8317.955752   4440.045041 999999.999999
PE36  20732.635329   5796.566239 -20322.249232 999999.999999
PG01   5066.075203  14081.394875 -22228.477156 999999.999999
PG02  18659.505602 -14379.178144  12975.140846 999999.999999
PG03  10703.774354  22435.207291  -9601.355310 999999.999999
PG04   1267.419437  22860.803584  13421.451832 999999.999999
PG05   1362.097259 -18230.638827  19048.409144 999999.999999
PG06  25602.248706  -6690.111878   2703.593598 999999.999999
PG07  19455.249916   8478.104668  16628.347239 999999.999999
PG08  -5336.655816  25518.035530  -4138.589404 999999.999999
PG09  10150.299222  14340.782371  19854.569623 999999.999999
PG10 -20344.457870  -7097.786553 -15589.511138 999999.999999
PG12  -7953.833851 -23054.467087 -10940.367465 999999.999999
PG13  13232.805395 -22811.927329   2305.886031 999999.999999
PG14  20079.384574   7567.188385 -15686.232033 999999.999999
PG15   2074.886492 -25921.039889  -4747.336246 999999.999999
PG16  -7591.011911  13892.880384  20997.801802 999999.999999
PG17  15711.969292  -1335.206114 -20947.390387 999999.999999
PG18 -21553.763839  -6277.239519  14237.319847 999999.999999
PG19  17595.599581  -9974.400741 -17431.701872 999999.999999
PG20   1171.700244 -17931.786621  19597.647920 999999.999999
PG21  -3495.604311  15746.215032 -20300.923146 999999.999999
PG22   3846.828885  20389.460794 -16506.293618 999999.999999
PG23 -20378.465545 -15895.605981  -6264.113442 999999.999999
PG24   -116.966172 -16202.429572 -21249.784757 999999.999999
PG25 -17243.860343 -20392.151419   -530.726323 999999.999999
PG26 -15342.992408   5859.159925  20857.456383 999999.999999
PG27 -12243.810611  22452.656624   6239.918760 999999.999999
PG28  17646.223380   2324.689366 -19105.747445 999999.999999
PG29  -7816.284870 -15523.081372  20016.888332 999999.999999
PG30  26080.275021    -70.808769   5720.998203 999999.999999
PG31 -25046.195929   7924.239618   5261.119855 999999.999999
PG32 -16512.662592   4480.022567 -20156.246416 999999.999999
PJ01 -20587.453368  26950.818610 -20493.697076 999999.999999
PJ02 -26614.134364  21112.340729  29904.293089 999999.999999
PJ03 -33606.476610  25399.440616   5936.984686 999999.999999
PR01  -6886.679451  15114.832695 -19360.290161 999999.999999
PR02   2821.954708  25265.295251  -1639.135766 999999.999999
PR03   9889.197092  18163.788253  14944.410180 999999.999999
PR04  11051.842658   1053.084105  22996.495144 999999.999999
PR05   6240.975577 -16703.471804  18264.492484 999999.999999
PR07  -9988.308870 -17770.025807 -15320.275736 999999.999999
PR08 -11132.792871   -981.542599 -22871.385676 999999.999999
PR09  -6417.620050 -13339.669081 -20734.218072 999999.999999
PR11 -23461.607679  -4236.140380   9062.168080 999999.999999
PR12 -12032.638342   6361.500944  21604.549866 999999.999999
PR13   5855.761166  12993.910778  21142.682355 999999.999999
PR14  20980.482774  12207.105425   7885.997839 999999.999999
PR15  23288.855334   4259.658961  -9479.097239 999999.999999
PR16  10797.588871  -7404.247726 -21887.486944 999999.999999
PR17   9296.835968   5977.129622 -22984.393049 999999.999999
PR18  19711.366999  -7016.719749 -14621.574508 999999.999999
PR19  20337.728597 -15380.301958    635.340157 999999.999999
PR20   7740.149030 -15863.897033  18433.760461 999999.999999
PR21 -10296.205184  -4984.013714  22795.055627 999999.999999
PR22 -19989.949838   7603.532601  13804.629555 999999.999999
PR24  -6601.310844  16044.416857 -18695.084428 999999.999999
EOF
